IRIDIUM 126             
1 42809U 17039G   25358.65757247  .00000303  00000+0  10111-3 0  9991
2 42809  86.3958  66.6034 0002065 101.8793 258.2634 14.34221429444937
IRIDIUM 124             
1 42810U 17039H   25358.54666635  .00000370  00000+0  10396-3 0  9990
2 42810  86.4488   3.3699 0002385  94.1729 265.9745 14.43282584449922
IRIDIUM 128             
1 42811U 17039J   25358.71808756  .00000095  00000+0  26993-4 0  9997
2 42811  86.3969  98.1137 0002445  94.2603 265.8872 14.34218192444978
IRIDIUM 121             
1 42812U 17039K   25358.74637597  .00000762  00000+0  26492-3 0  9998
2 42812  86.3949  66.5919 0002222  91.1338 269.0113 14.34218181444824
IRIDIUM 133             
1 42955U 17061A   25358.74979894  .00000076  00000+0  20181-4 0  9998
2 42955  86.3973  98.2140 0002152  97.1110 263.0330 14.34219119429777
IRIDIUM 100             
1 42956U 17061B   25358.81322481  .00000115  00000+0  33914-4 0  9993
2 42956  86.3967  98.1100 0002125  98.5174 261.6262 14.34218409429781
IRIDIUM 122             
1 42957U 17061C   25358.78151280  .00000311  00000+0  10382-3 0  9998
2 42957  86.3965  98.1222 0002018  99.7929 260.3495 14.34217854429784
IRIDIUM 129             
1 42958U 17061D   25358.80688526  .00000306  00000+0  10214-3 0  9998
2 42958  86.3971  98.1778 0001709  94.1804 265.9587 14.34218418429808
